{
  "links" : {
    "next" : "https://api.nasa.gov/neo/rest/v1/feed?start_date=2014-10-23&end_date=2014-10-23&detailed=true&api_key=t0TVs3DtDT2H8Oy2Zy8m2eVrNsAVKAexjcZXUckd",
    "prev" : "https://api.nasa.gov/neo/rest/v1/feed?start_date=2014-10-21&end_date=2014-10-21&detailed=true&api_key=t0TVs3DtDT2H8Oy2Zy8m2eVrNsAVKAexjcZXUckd",
    "self" : "https://api.nasa.gov/neo/rest/v1/feed?start_date=2014-10-22&end_date=2014-10-22&detailed=true&api_key=t0TVs3DtDT2H8Oy2Zy8m2eVrNsAVKAexjcZXUckd"
  },
  "element_count" : 12,
  "near_earth_objects" : {
    "2014-10-22" : [ {
      "links" : {
        "self" : "https://api.nasa.gov/neo/rest/v1/neo/2413260?api_key=t0TVs3DtDT2H8Oy2Zy8m2eVrNsAVKAexjcZXUckd"
      },
      "neo_reference_id" : "2413260",
      "name" : "413260 (2003 TL4)",
      "nasa_jpl_url" : "http://ssd.jpl.nasa.gov/sbdb.cgi?sstr=2413260",
      "absolute_magnitude_h" : 19.4,
      "estimated_diameter" : {
        "kilometers" : {
          "estimated_diameter_min" : 0.3503926411,
          "estimated_diameter_max" : 0.7835017643
        },
        "meters" : {
          "estimated_diameter_min" : 350.3926411083,
          "estimated_diameter_max" : 783.5017643338
        },
        "miles" : {
          "estimated_diameter_min" : 0.2177238258,
          "estimated_diameter_max" : 0.4868452748
        },
        "feet" : {
          "estimated_diameter_min" : 1149.5821926537,
          "estimated_diameter_max" : 2570.543928497
        }
      },
      "is_potentially_hazardous_asteroid" : true,
      "close_approach_data" : [ {
        "close_approach_date" : "2014-10-22",
        "epoch_date_close_approach" : 1413961200000,
        "relative_velocity" : {
          "kilometers_per_second" : "19.2944254441",
          "kilometers_per_hour" : "69459.9315986966",
          "miles_per_hour" : "43159.7002758679"
        },
        "miss_distance" : {
          "astronomical" : "0.2992591416",
          "lunar" : "116.4118118286",
          "kilometers" : "44768532",
          "miles" : "27817876"
        },
        "orbiting_body" : "Earth"
      } ],
      "orbital_data" : {
        "orbit_id" : "67",
        "orbit_determination_date" : "2017-04-06 09:21:34",
        "orbit_uncertainty" : "0",
        "minimum_orbit_intersection" : ".0249707",
        "jupiter_tisserand_invariant" : "7.398",
        "epoch_osculation" : "2458000.5",
        "eccentricity" : ".3815149390777431",
        "semi_major_axis" : ".7765954143905196",
        "inclination" : "12.18548022658475",
        "ascending_node_longitude" : "220.0651000423994",
        "orbital_period" : "249.9715939983711",
        "perihelion_distance" : ".4803126621812659",
        "perihelion_argument" : "321.9415922657562",
        "aphelion_distance" : "1.072878166599773",
        "perihelion_time" : "2458020.891827457756",
        "mean_anomaly" : "330.6324316000475",
        "mean_motion" : "1.440163637162492",
        "equinox" : "J2000"
      }
    }, {
      "links" : {
        "self" : "https://api.nasa.gov/neo/rest/v1/neo/3605006?api_key=t0TVs3DtDT2H8Oy2Zy8m2eVrNsAVKAexjcZXUckd"
      },
      "neo_reference_id" : "3605006",
      "name" : "(2012 KF25)",
      "nasa_jpl_url" : "http://ssd.jpl.nasa.gov/sbdb.cgi?sstr=3605006",
      "absolute_magnitude_h" : 25.3,
      "estimated_diameter" : {
        "kilometers" : {
          "estimated_diameter_min" : 0.0231502122,
          "estimated_diameter_max" : 0.0517654482
        },
        "meters" : {
          "estimated_diameter_min" : 23.150212221,
          "estimated_diameter_max" : 51.7654482198
        },
        "miles" : {
          "estimated_diameter_min" : 0.0143848705,
          "estimated_diameter_max" : 0.0321655483
        },
        "feet" : {
          "estimated_diameter_min" : 75.9521422633,
          "estimated_diameter_max" : 169.8341531374
        }
      },
      "is_potentially_hazardous_asteroid" : false,
      "close_approach_data" : [ {
        "close_approach_date" : "2014-10-22",
        "epoch_date_close_approach" : 1413961200000,
        "relative_velocity" : {
          "kilometers_per_second" : "12.8723210639",
          "kilometers_per_hour" : "46340.3558301905",
          "miles_per_hour" : "28794.0949879314"
        },
        "miss_distance" : {
          "astronomical" : "0.3575695101",
          "lunar" : "139.094543457",
          "kilometers" : "53491640",
          "miles" : "33238164"
        },
        "orbiting_body" : "Earth"
      } ],
      "orbital_data" : {
        "orbit_id" : "7",
        "orbit_determination_date" : "2017-04-06 08:49:41",
        "orbit_uncertainty" : "6",
        "minimum_orbit_intersection" : ".0199428",
        "jupiter_tisserand_invariant" : "6.101",
        "epoch_osculation" : "2458000.5",
        "eccentricity" : ".04978370662596403",
        "semi_major_axis" : ".9876903830375856",
        "inclination" : "16.94815881102105",
        "ascending_node_longitude" : "64.87534064153274",
        "orbital_period" : "358.5334371483454",
        "perihelion_distance" : ".9385194947711565",
        "perihelion_argument" : "336.4711963624645",
        "aphelion_distance" : "1.036861271304015",
        "perihelion_time" : "2458022.195511219581",
        "mean_anomaly" : "338.2157443914562",
        "mean_motion" : "1.004090449312954",
        "equinox" : "J2000"
      }
    }, {
      "links" : {
        "self" : "https://api.nasa.gov/neo/rest/v1/neo/3687148?api_key=t0TVs3DtDT2H8Oy2Zy8m2eVrNsAVKAexjcZXUckd"
      },
      "neo_reference_id" : "3687148",
      "name" : "(2014 RQ17)",
      "nasa_jpl_url" : "http://ssd.jpl.nasa.gov/sbdb.cgi?sstr=3687148",
      "absolute_magnitude_h" : 22.3,
      "estimated_diameter" : {
        "kilometers" : {
          "estimated_diameter_min" : 0.0921626549,
          "estimated_diameter_max" : 0.2060819612
        },
        "meters" : {
          "estimated_diameter_min" : 92.1626548503,
          "estimated_diameter_max" : 206.0819612321
        },
        "miles" : {
          "estimated_diameter_min" : 0.057267201,
          "estimated_diameter_max" : 0.1280533543
        },
        "feet" : {
          "estimated_diameter_min" : 302.370924539,
          "estimated_diameter_max" : 676.1219416887
        }
      },
      "is_potentially_hazardous_asteroid" : false,
      "close_approach_data" : [ {
        "close_approach_date" : "2014-10-22",
        "epoch_date_close_approach" : 1413961200000,
        "relative_velocity" : {
          "kilometers_per_second" : "6.4040984479",
          "kilometers_per_hour" : "23054.7544125779",
          "miles_per_hour" : "14325.3278181932"
        },
        "miss_distance" : {
          "astronomical" : "0.0305258841",
          "lunar" : "11.8745689392",
          "kilometers" : "4566607",
          "miles" : "2837558.25"
        },
        "orbiting_body" : "Earth"
      } ],
      "orbital_data" : {
        "orbit_id" : "40",
        "orbit_determination_date" : "2017-08-10 06:18:12",
        "orbit_uncertainty" : "0",
        "minimum_orbit_intersection" : ".0246823",
        "jupiter_tisserand_invariant" : "3.989",
        "epoch_osculation" : "2458000.5",
        "eccentricity" : ".4426416948780221",
        "semi_major_axis" : "1.766195271444016",
        "inclination" : "3.67022310010228",
        "ascending_node_longitude" : "1.0086814527161",
        "orbital_period" : "857.3467451770045",
        "perihelion_distance" : ".9844036030064883",
        "perihelion_argument" : "42.70873169902419",
        "aphelion_distance" : "2.547986939881543",
        "perihelion_time" : "2457823.102896401375",
        "mean_anomaly" : "74.48906484425966",
        "mean_motion" : ".4199001186219886",
        "equinox" : "J2000"
      }
    } ]
  }
}